{
  "type": "FeatureCollection",
  "features": [
    {
      "type": "Feature",
      "properties": {
        "norad_id": 25590,
        "name": "COSMOS 2361",
        "group": "musson",
        "lat": 33.5513271890114,
        "lon": 165.5973414796565,
        "alt_km": 1003.8674844469051,
        "timestamp": "2025-12-04T07:39:36.406055+00:00",
        "meta_object_name": "COSMOS 2361",
        "meta_object_id": "1998-076A",
        "meta_epoch": "2025-12-03T14:03:29.613024",
        "meta_mean_motion": 13.73215969,
        "meta_eccentricity": 0.00301558,
        "meta_inclination": 82.9342,
        "meta_ra_of_asc_node": 350.8575,
        "meta_arg_of_pericenter": 292.187,
        "meta_mean_anomaly": 190.4432,
        "meta_ephemeris_type": 0,
        "meta_classification_type": "U",
        "meta_norad_cat_id": 25590,
        "meta_element_set_no": 999,
        "meta_rev_at_epoch": 34985,
        "meta_bstar": 8.9609109e-05,
        "meta_mean_motion_dot": 9.8e-07,
        "meta_mean_motion_ddot": 0,
        "tle_line1": "1 25590U 98076A   25337.58575941  .00000098  00000+0  89609-4 0  9997",
        "tle_line2": "2 25590  82.9342 350.8575 0030155 292.1870 190.4432 13.73215969349855"
      },
      "geometry": {
        "type": "Point",
        "coordinates": [
          165.5973414796565,
          33.5513271890114
        ]
      }
    },
    {
      "type": "Feature",
      "properties": {
        "norad_id": 26818,
        "name": "COSMOS 2378",
        "group": "musson",
        "lat": -10.708280697231134,
        "lon": -172.68578678344994,
        "alt_km": 970.4309034943035,
        "timestamp": "2025-12-04T07:39:36.406073+00:00",
        "meta_object_name": "COSMOS 2378",
        "meta_object_id": "2001-023A",
        "meta_epoch": "2025-12-03T21:05:46.153824",
        "meta_mean_motion": 13.74140869,
        "meta_eccentricity": 0.00319386,
        "meta_inclination": 82.9279,
        "meta_ra_of_asc_node": 6.2953,
        "meta_arg_of_pericenter": 230.1645,
        "meta_mean_anomaly": 304.508,
        "meta_ephemeris_type": 0,
        "meta_classification_type": "U",
        "meta_norad_cat_id": 26818,
        "meta_element_set_no": 999,
        "meta_rev_at_epoch": 22801,
        "meta_bstar": 9.0272101e-05,
        "meta_mean_motion_dot": 1e-06,
        "meta_mean_motion_ddot": 0,
        "tle_line1": "1 26818U 01023A   25337.87900641  .00000100  00000+0  90272-4 0  9990",
        "tle_line2": "2 26818  82.9279   6.2953 0031938 230.1645 304.5080 13.74140869228010"
      },
      "geometry": {
        "type": "Point",
        "coordinates": [
          -172.68578678344994,
          -10.708280697231134
        ]
      }
    },
    {
      "type": "Feature",
      "properties": {
        "norad_id": 27436,
        "name": "COSMOS 2389",
        "group": "musson",
        "lat": 6.485866634462981,
        "lon": -45.974672309873625,
        "alt_km": 975.035423035788,
        "timestamp": "2025-12-04T07:39:36.406084+00:00",
        "meta_object_name": "COSMOS 2389",
        "meta_object_id": "2002-026A",
        "meta_epoch": "2025-12-03T21:26:33.135648",
        "meta_mean_motion": 13.75153243,
        "meta_eccentricity": 0.0047773,
        "meta_inclination": 82.9495,
        "meta_ra_of_asc_node": 313.5343,
        "meta_arg_of_pericenter": 84.7704,
        "meta_mean_anomaly": 335.9901,
        "meta_ephemeris_type": 0,
        "meta_classification_type": "U",
        "meta_norad_cat_id": 27436,
        "meta_element_set_no": 999,
        "meta_rev_at_epoch": 18027,
        "meta_bstar": 7.6760489e-05,
        "meta_mean_motion_dot": 9e-07,
        "meta_mean_motion_ddot": 0,
        "tle_line1": "1 27436U 02026A   25337.89343907  .00000090  00000+0  76760-4 0  9993",
        "tle_line2": "2 27436  82.9495 313.5343 0047773  84.7704 335.9901 13.75153243180273"
      },
      "geometry": {
        "type": "Point",
        "coordinates": [
          -45.974672309873625,
          6.485866634462981
        ]
      }
    },
    {
      "type": "Feature",
      "properties": {
        "norad_id": 27818,
        "name": "COSMOS 2398",
        "group": "musson",
        "lat": 42.82275054612371,
        "lon": -74.50860280307722,
        "alt_km": 987.8166718373068,
        "timestamp": "2025-12-04T07:39:36.406094+00:00",
        "meta_object_name": "COSMOS 2398",
        "meta_object_id": "2003-023A",
        "meta_epoch": "2025-12-03T21:12:51.292800",
        "meta_mean_motion": 13.72384416,
        "meta_eccentricity": 0.00322443,
        "meta_inclination": 82.9476,
        "meta_ra_of_asc_node": 279.2246,
        "meta_arg_of_pericenter": 135.5715,
        "meta_mean_anomaly": 278.9534,
        "meta_ephemeris_type": 0,
        "meta_classification_type": "U",
        "meta_norad_cat_id": 27818,
        "meta_element_set_no": 999,
        "meta_rev_at_epoch": 12695,
        "meta_bstar": 5.941652e-05,
        "meta_mean_motion_dot": 7e-07,
        "meta_mean_motion_ddot": 0,
        "tle_line1": "1 27818U 03023A   25337.88392700  .00000070  00000+0  59417-4 0  9997",
        "tle_line2": "2 27818  82.9476 279.2246 0032244 135.5715 278.9534 13.72384416126958"
      },
      "geometry": {
        "type": "Point",
        "coordinates": [
          -74.50860280307722,
          42.82275054612371
        ]
      }
    },
    {
      "type": "Feature",
      "properties": {
        "norad_id": 28380,
        "name": "COSMOS 2407",
        "group": "musson",
        "lat": 58.41364929198991,
        "lon": 27.5353811326161,
        "alt_km": 949.5582491405958,
        "timestamp": "2025-12-04T07:39:36.406104+00:00",
        "meta_object_name": "COSMOS 2407",
        "meta_object_id": "2004-028A",
        "meta_epoch": "2025-12-03T19:12:08.773920",
        "meta_mean_motion": 13.76312141,
        "meta_eccentricity": 0.00405254,
        "meta_inclination": 82.9613,
        "meta_ra_of_asc_node": 219.5109,
        "meta_arg_of_pericenter": 79.0926,
        "meta_mean_anomaly": 351.011,
        "meta_ephemeris_type": 0,
        "meta_classification_type": "U",
        "meta_norad_cat_id": 28380,
        "meta_element_set_no": 999,
        "meta_rev_at_epoch": 7300,
        "meta_bstar": 9.9856988e-05,
        "meta_mean_motion_dot": 1.14e-06,
        "meta_mean_motion_ddot": 0,
        "tle_line1": "1 28380U 04028A   25337.80010155  .00000114  00000+0  99857-4 0  9992",
        "tle_line2": "2 28380  82.9613 219.5109 0040525  79.0926 351.0110 13.76312141 73008"
      },
      "geometry": {
        "type": "Point",
        "coordinates": [
          27.5353811326161,
          58.41364929198991
        ]
      }
    },
    {
      "type": "Feature",
      "properties": {
        "norad_id": 28521,
        "name": "COSMOS 2414",
        "group": "musson",
        "lat": 32.371440766748336,
        "lon": -164.47380366685863,
        "alt_km": 953.1716834927265,
        "timestamp": "2025-12-04T07:39:36.406114+00:00",
        "meta_object_name": "COSMOS 2414",
        "meta_object_id": "2005-002A",
        "meta_epoch": "2025-12-03T17:39:37.668096",
        "meta_mean_motion": 13.87901131,
        "meta_eccentricity": 0.00403428,
        "meta_inclination": 82.9499,
        "meta_ra_of_asc_node": 191.468,
        "meta_arg_of_pericenter": 164.9748,
        "meta_mean_anomaly": 195.2625,
        "meta_ephemeris_type": 0,
        "meta_classification_type": "U",
        "meta_norad_cat_id": 28521,
        "meta_element_set_no": 999,
        "meta_rev_at_epoch": 5670,
        "meta_bstar": 9.3001106e-05,
        "meta_mean_motion_dot": 1.27e-06,
        "meta_mean_motion_ddot": 0,
        "tle_line1": "1 28521U 05002A   25337.73585264  .00000127  00000+0  93001-4 0  9991",
        "tle_line2": "2 28521  82.9499 191.4680 0040342 164.9748 195.2625 13.87901131 56704"
      },
      "geometry": {
        "type": "Point",
        "coordinates": [
          -164.47380366685863,
          32.371440766748336
        ]
      }
    },
    {
      "type": "Feature",
      "properties": {
        "norad_id": 32052,
        "name": "COSMOS 2429",
        "group": "musson",
        "lat": -13.554257766155732,
        "lon": 171.2191587934134,
        "alt_km": 1005.3899475988092,
        "timestamp": "2025-12-04T07:39:36.406124+00:00",
        "meta_object_name": "COSMOS 2429",
        "meta_object_id": "2007-038A",
        "meta_epoch": "2025-12-03T18:30:05.943168",
        "meta_mean_motion": 13.75148037,
        "meta_eccentricity": 0.00396129,
        "meta_inclination": 82.9805,
        "meta_ra_of_asc_node": 349.9211,
        "meta_arg_of_pericenter": 62.2611,
        "meta_mean_anomaly": 298.2554,
        "meta_ephemeris_type": 0,
        "meta_classification_type": "U",
        "meta_norad_cat_id": 32052,
        "meta_element_set_no": 999,
        "meta_rev_at_epoch": 91479,
        "meta_bstar": 6.8666753e-05,
        "meta_mean_motion_dot": 8.2e-07,
        "meta_mean_motion_ddot": 0,
        "tle_line1": "1 32052U 07038A   25337.77090212  .00000082  00000+0  68667-4 0  9994",
        "tle_line2": "2 32052  82.9805 349.9211 0039612  62.2611 298.2554 13.75148037914798"
      },
      "geometry": {
        "type": "Point",
        "coordinates": [
          171.2191587934134,
          -13.554257766155732
        ]
      }
    },
    {
      "type": "Feature",
      "properties": {
        "norad_id": 35635,
        "name": "COSMOS 2454",
        "group": "musson",
        "lat": 21.470938646410126,
        "lon": 177.81560833826498,
        "alt_km": 924.6153638620981,
        "timestamp": "2025-12-04T07:39:36.406133+00:00",
        "meta_object_name": "COSMOS 2454",
        "meta_object_id": "2009-039A",
        "meta_epoch": "2025-12-03T19:30:48.530880",
        "meta_mean_motion": 13.89926825,
        "meta_eccentricity": 0.00204847,
        "meta_inclination": 82.9556,
        "meta_ra_of_asc_node": 175.4117,
        "meta_arg_of_pericenter": 97.6074,
        "meta_mean_anomaly": 273.3744,
        "meta_ephemeris_type": 0,
        "meta_classification_type": "U",
        "meta_norad_cat_id": 35635,
        "meta_element_set_no": 999,
        "meta_rev_at_epoch": 83026,
        "meta_bstar": 7.2784896e-05,
        "meta_mean_motion_dot": 1.06e-06,
        "meta_mean_motion_ddot": 0,
        "tle_line1": "1 35635U 09039A   25337.81306170  .00000106  00000+0  72785-4 0  9998",
        "tle_line2": "2 35635  82.9556 175.4117 0020484  97.6074 273.3744 13.89926825830268"
      },
      "geometry": {
        "type": "Point",
        "coordinates": [
          177.81560833826498,
          21.470938646410126
        ]
      }
    },
    {
      "type": "Feature",
      "properties": {
        "norad_id": 36519,
        "name": "COSMOS 2463",
        "group": "musson",
        "lat": -73.72796629770555,
        "lon": -122.06227381075605,
        "alt_km": 986.8345152839684,
        "timestamp": "2025-12-04T07:39:36.406143+00:00",
        "meta_object_name": "COSMOS 2463",
        "meta_object_id": "2010-017A",
        "meta_epoch": "2025-12-03T16:58:14.708352",
        "meta_mean_motion": 13.71647895,
        "meta_eccentricity": 0.00350995,
        "meta_inclination": 82.9621,
        "meta_ra_of_asc_node": 33.3498,
        "meta_arg_of_pericenter": 313.9615,
        "meta_mean_anomaly": 161.0406,
        "meta_ephemeris_type": 0,
        "meta_classification_type": "U",
        "meta_norad_cat_id": 36519,
        "meta_element_set_no": 999,
        "meta_rev_at_epoch": 78113,
        "meta_bstar": 8.2612054e-05,
        "meta_mean_motion_dot": 9e-07,
        "meta_mean_motion_ddot": 0,
        "tle_line1": "1 36519U 10017A   25337.70711468  .00000090  00000+0  82612-4 0  9998",
        "tle_line2": "2 36519  82.9621  33.3498 0035099 313.9615 161.0406 13.71647895781137"
      },
      "geometry": {
        "type": "Point",
        "coordinates": [
          -122.06227381075605,
          -73.72796629770555
        ]
      }
    }
  ]
}